[{"OBJECT_NAME":"TIANMU-1 10","OBJECT_ID":"2023-101D","EPOCH":"2026-03-09T23:06:46.939392","MEAN_MOTION":15.2921896,"ECCENTRICITY":0.00069292,"INCLINATION":97.2749,"RA_OF_ASC_NODE":122.1027,"ARG_OF_PERICENTER":133.6162,"MEAN_ANOMALY":226.5654,"EPHEMERIS_TYPE":0,"CLASSIFICATION_TYPE":"U","NORAD_CAT_ID":57402,"ELEMENT_SET_NO":999,"REV_AT_EPOCH":14647,"BSTAR":0.00032238884,"MEAN_MOTION_DOT":9.075e-5,"MEAN_MOTION_DDOT":0},{"OBJECT_NAME":"STARLINK-33866","OBJECT_ID":"2025-083V","EPOCH":"2026-03-09T05:26:43.893888","MEAN_MOTION":15.27603221,"ECCENTRICITY":0.0001501,"INCLINATION":43.0049,"RA_OF_ASC_NODE":8.0306,"ARG_OF_PERICENTER":262.1972,"MEAN_ANOMALY":97.871,"EPHEMERIS_TYPE":0,"CLASSIFICATION_TYPE":"U","NORAD_CAT_ID":63653,"ELEMENT_SET_NO":999,"REV_AT_EPOCH":5002,"BSTAR":0.0013116397,"MEAN_MOTION_DOT":0.00036033,"MEAN_MOTION_DDOT":0}]
